[{"OBJECT_NAME":"ONEWEB-0132","OBJECT_ID":"2020-100W","EPOCH":"2025-11-04T03:55:50.387232","MEAN_MOTION":13.1244126,"ECCENTRICITY":0.00017742,"INCLINATION":87.8975,"RA_OF_ASC_NODE":35.3812,"ARG_OF_PERICENTER":102.5846,"MEAN_ANOMALY":257.5481,"EPHEMERIS_TYPE":0,"CLASSIFICATION_TYPE":"U","NORAD_CAT_ID":47278,"ELEMENT_SET_NO":999,"REV_AT_EPOCH":23506,"BSTAR":0.00123502,"MEAN_MOTION_DOT":4.57e-6,"MEAN_MOTION_DDOT":0},{"OBJECT_NAME":"ONEWEB-0133","OBJECT_ID":"2020-100X","EPOCH":"2025-11-04T04:18:59.433984","MEAN_MOTION":13.12440833,"ECCENTRICITY":0.00018774,"INCLINATION":87.8969,"RA_OF_ASC_NODE":35.3422,"ARG_OF_PERICENTER":106.4211,"MEAN_ANOMALY":253.7124,"EPHEMERIS_TYPE":0,"CLASSIFICATION_TYPE":"U","NORAD_CAT_ID":47279,"ELEMENT_SET_NO":999,"REV_AT_EPOCH":23522,"BSTAR":-9.370403e-6,"MEAN_MOTION_DOT":9.0e-8,"MEAN_MOTION_DDOT":0},{"OBJECT_NAME":"ONEWEB-0134","OBJECT_ID":"2020-100Y","EPOCH":"2025-11-04T07:14:23.119008","MEAN_MOTION":13.12443663,"ECCENTRICITY":0.0002081,"INCLINATION":87.8973,"RA_OF_ASC_NODE":35.3104,"ARG_OF_PERICENTER":101.9983,"MEAN_ANOMALY":258.1379,"EPHEMERIS_TYPE":0,"CLASSIFICATION_TYPE":"U","NORAD_CAT_ID":47280,"ELEMENT_SET_NO":999,"REV_AT_EPOCH":23521,"BSTAR":0.00088117898,"MEAN_MOTION_DOT":3.3e-6,"MEAN_MOTION_DDOT":0},{"OBJECT_NAME":"ONEWEB-0135","OBJECT_ID":"2020-100Z","EPOCH":"2025-11-04T06:32:18.873024","MEAN_MOTION":13.1244138,"ECCENTRICITY":0.00021433,"INCLINATION":87.8979,"RA_OF_ASC_NODE":35.357,"ARG_OF_PERICENTER":106.8286,"MEAN_ANOMALY":253.3078,"EPHEMERIS_TYPE":0,"CLASSIFICATION_TYPE":"U","NORAD_CAT_ID":47281,"ELEMENT_SET_NO":999,"REV_AT_EPOCH":23523,"BSTAR":-0.0011677157,"MEAN_MOTION_DOT":-4.07e-6,"MEAN_MOTION_DDOT":0},{"OBJECT_NAME":"ONEWEB-0136","OBJECT_ID":"2020-100AA","EPOCH":"2025-11-04T07:00:20.552256","MEAN_MOTION":13.12441771,"ECCENTRICITY":0.00022046,"INCLINATION":87.8975,"RA_OF_ASC_NODE":35.3214,"ARG_OF_PERICENTER":100.7653,"MEAN_ANOMALY":259.3724,"EPHEMERIS_TYPE":0,"CLASSIFICATION_TYPE":"U","NORAD_CAT_ID":47282,"ELEMENT_SET_NO":999,"REV_AT_EPOCH":23516,"BSTAR":-0.00021574847,"MEAN_MOTION_DOT":-6.5e-7,"MEAN_MOTION_DDOT":0},{"OBJECT_NAME":"ONEWEB-0137","OBJECT_ID":"2020-100AB","EPOCH":"2025-11-04T04:09:51.412608","MEAN_MOTION":13.12442195,"ECCENTRICITY":0.0001684,"INCLINATION":87.8979,"RA_OF_ASC_NODE":35.3507,"ARG_OF_PERICENTER":96.3056,"MEAN_ANOMALY":263.8264,"EPHEMERIS_TYPE":0,"CLASSIFICATION_TYPE":"U","NORAD_CAT_ID":47283,"ELEMENT_SET_NO":999,"REV_AT_EPOCH":23505,"BSTAR":0.0006175532,"MEAN_MOTION_DOT":2.35e-6,"MEAN_MOTION_DDOT":0},{"OBJECT_NAME":"ONEWEB-0138","OBJECT_ID":"2020-100AC","EPOCH":"2025-11-04T07:19:02.565984","MEAN_MOTION":13.12444878,"ECCENTRICITY":0.00020342,"INCLINATION":87.8973,"RA_OF_ASC_NODE":35.334,"ARG_OF_PERICENTER":100.2188,"MEAN_ANOMALY":259.917,"EPHEMERIS_TYPE":0,"CLASSIFICATION_TYPE":"U","NORAD_CAT_ID":47284,"ELEMENT_SET_NO":999,"REV_AT_EPOCH":23515,"BSTAR":0.0012763899,"MEAN_MOTION_DOT":4.72e-6,"MEAN_MOTION_DDOT":0},{"OBJECT_NAME":"ONEWEB-0139","OBJECT_ID":"2020-100AD","EPOCH":"2025-11-04T06:25:31.845216","MEAN_MOTION":13.12441518,"ECCENTRICITY":0.00017748,"INCLINATION":87.8973,"RA_OF_ASC_NODE":35.3313,"ARG_OF_PERICENTER":102.1726,"MEAN_ANOMALY":257.9602,"EPHEMERIS_TYPE":0,"CLASSIFICATION_TYPE":"U","NORAD_CAT_ID":47285,"ELEMENT_SET_NO":999,"REV_AT_EPOCH":23522,"BSTAR":-0.0010190322,"MEAN_MOTION_DOT":-3.54e-6,"MEAN_MOTION_DDOT":0},{"OBJECT_NAME":"ONEWEB-0140","OBJECT_ID":"2020-100AE","EPOCH":"2025-11-04T07:09:41.270976","MEAN_MOTION":13.12445187,"ECCENTRICITY":0.00019647,"INCLINATION":87.8972,"RA_OF_ASC_NODE":35.3111,"ARG_OF_PERICENTER":101.3379,"MEAN_ANOMALY":258.7971,"EPHEMERIS_TYPE":0,"CLASSIFICATION_TYPE":"U","NORAD_CAT_ID":47286,"ELEMENT_SET_NO":999,"REV_AT_EPOCH":23519,"BSTAR":8.21104e-6,"MEAN_MOTION_DOT":1.6e-7,"MEAN_MOTION_DDOT":0},{"OBJECT_NAME":"ONEWEB-0141","OBJECT_ID":"2020-100AF","EPOCH":"2025-11-04T06:25:08.029920","MEAN_MOTION":13.12442374,"ECCENTRICITY":0.0001621,"INCLINATION":87.8969,"RA_OF_ASC_NODE":35.329,"ARG_OF_PERICENTER":91.984,"MEAN_ANOMALY":268.1474,"EPHEMERIS_TYPE":0,"CLASSIFICATION_TYPE":"U","NORAD_CAT_ID":47287,"ELEMENT_SET_NO":999,"REV_AT_EPOCH":23517,"BSTAR":-0.00072821232,"MEAN_MOTION_DOT":-2.49e-6,"MEAN_MOTION_DDOT":0},{"OBJECT_NAME":"ONEWEB-0142","OBJECT_ID":"2020-100AG","EPOCH":"2025-11-04T04:19:22.994400","MEAN_MOTION":13.12440453,"ECCENTRICITY":0.00017915,"INCLINATION":87.8979,"RA_OF_ASC_NODE":35.3671,"ARG_OF_PERICENTER":88.678,"MEAN_ANOMALY":271.4554,"EPHEMERIS_TYPE":0,"CLASSIFICATION_TYPE":"U","NORAD_CAT_ID":47288,"ELEMENT_SET_NO":999,"REV_AT_EPOCH":23515,"BSTAR":2.14775e-6,"MEAN_MOTION_DOT":1.3e-7,"MEAN_MOTION_DDOT":0},{"OBJECT_NAME":"ONEWEB-0143","OBJECT_ID":"2020-100AH","EPOCH":"2025-11-04T06:22:58.601856","MEAN_MOTION":13.12440926,"ECCENTRICITY":0.00017164,"INCLINATION":87.8978,"RA_OF_ASC_NODE":35.3461,"ARG_OF_PERICENTER":102.1806,"MEAN_ANOMALY":257.9515,"EPHEMERIS_TYPE":0,"CLASSIFICATION_TYPE":"U","NORAD_CAT_ID":47289,"ELEMENT_SET_NO":999,"REV_AT_EPOCH":23514,"BSTAR":-0.0010397102,"MEAN_MOTION_DOT":-3.61e-6,"MEAN_MOTION_DDOT":0},{"OBJECT_NAME":"ONEWEB-0144","OBJECT_ID":"2020-100AJ","EPOCH":"2025-11-04T07:33:04.289472","MEAN_MOTION":13.12441722,"ECCENTRICITY":0.00020987,"INCLINATION":87.8966,"RA_OF_ASC_NODE":35.3073,"ARG_OF_PERICENTER":95.1991,"MEAN_ANOMALY":264.9377,"EPHEMERIS_TYPE":0,"CLASSIFICATION_TYPE":"U","NORAD_CAT_ID":47290,"ELEMENT_SET_NO":999,"REV_AT_EPOCH":23507,"BSTAR":0.0012475596,"MEAN_MOTION_DOT":4.62e-6,"MEAN_MOTION_DDOT":0},{"OBJECT_NAME":"ONEWEB-0145","OBJECT_ID":"2020-100AK","EPOCH":"2025-11-04T06:51:00.045216","MEAN_MOTION":13.12442817,"ECCENTRICITY":0.00018555,"INCLINATION":87.8977,"RA_OF_ASC_NODE":35.349,"ARG_OF_PERICENTER":100.2084,"MEAN_ANOMALY":259.9254,"EPHEMERIS_TYPE":0,"CLASSIFICATION_TYPE":"U","NORAD_CAT_ID":47291,"ELEMENT_SET_NO":999,"REV_AT_EPOCH":23526,"BSTAR":-0.0013562396,"MEAN_MOTION_DOT":-4.75e-6,"MEAN_MOTION_DDOT":0},{"OBJECT_NAME":"ONEWEB-0146","OBJECT_ID":"2020-100AL","EPOCH":"2025-11-04T06:46:19.585632","MEAN_MOTION":13.12441598,"ECCENTRICITY":0.00016645,"INCLINATION":87.8979,"RA_OF_ASC_NODE":35.3362,"ARG_OF_PERICENTER":112.4218,"MEAN_ANOMALY":247.7087,"EPHEMERIS_TYPE":0,"CLASSIFICATION_TYPE":"U","NORAD_CAT_ID":47292,"ELEMENT_SET_NO":999,"REV_AT_EPOCH":23517,"BSTAR":-0.00098025202,"MEAN_MOTION_DOT":-3.4e-6,"MEAN_MOTION_DDOT":0},{"OBJECT_NAME":"ONEWEB-0147","OBJECT_ID":"2020-100AM","EPOCH":"2025-11-04T04:07:31.327104","MEAN_MOTION":13.12442451,"ECCENTRICITY":0.00020522,"INCLINATION":87.8977,"RA_OF_ASC_NODE":35.3361,"ARG_OF_PERICENTER":103.8377,"MEAN_ANOMALY":256.298,"EPHEMERIS_TYPE":0,"CLASSIFICATION_TYPE":"U","NORAD_CAT_ID":47293,"ELEMENT_SET_NO":999,"REV_AT_EPOCH":23505,"BSTAR":0.00072720589,"MEAN_MOTION_DOT":2.74e-6,"MEAN_MOTION_DDOT":0},{"OBJECT_NAME":"ONEWEB-0115","OBJECT_ID":"2021-025A","EPOCH":"2025-11-04T05:21:31.234752","MEAN_MOTION":13.13468792,"ECCENTRICITY":0.00018514,"INCLINATION":87.9033,"RA_OF_ASC_NODE":4.9254,"ARG_OF_PERICENTER":99.7747,"MEAN_ANOMALY":260.3592,"EPHEMERIS_TYPE":0,"CLASSIFICATION_TYPE":"U","NORAD_CAT_ID":48042,"ELEMENT_SET_NO":999,"REV_AT_EPOCH":22406,"BSTAR":0.00088378804,"MEAN_MOTION_DOT":3.35e-6,"MEAN_MOTION_DDOT":0},{"OBJECT_NAME":"ONEWEB-0152","OBJECT_ID":"2021-025B","EPOCH":"2025-11-04T03:51:18.812160","MEAN_MOTION":13.13471669,"ECCENTRICITY":0.00018373,"INCLINATION":87.9023,"RA_OF_ASC_NODE":4.9486,"ARG_OF_PERICENTER":103.6399,"MEAN_ANOMALY":256.4935,"EPHEMERIS_TYPE":0,"CLASSIFICATION_TYPE":"U","NORAD_CAT_ID":48043,"ELEMENT_SET_NO":999,"REV_AT_EPOCH":22401,"BSTAR":0.00082694795,"MEAN_MOTION_DOT":3.15e-6,"MEAN_MOTION_DDOT":0},{"OBJECT_NAME":"ONEWEB-0153","OBJECT_ID":"2021-025C","EPOCH":"2025-11-04T05:09:19.053504","MEAN_MOTION":13.13472719,"ECCENTRICITY":0.00018684,"INCLINATION":87.9027,"RA_OF_ASC_NODE":4.9407,"ARG_OF_PERICENTER":97.2523,"MEAN_ANOMALY":262.8819,"EPHEMERIS_TYPE":0,"CLASSIFICATION_TYPE":"U","NORAD_CAT_ID":48044,"ELEMENT_SET_NO":999,"REV_AT_EPOCH":22401,"BSTAR":0.00051178678,"MEAN_MOTION_DOT":2.0e-6,"MEAN_MOTION_DDOT":0},{"OBJECT_NAME":"ONEWEB-0154","OBJECT_ID":"2021-025D","EPOCH":"2025-11-04T05:04:27.325632","MEAN_MOTION":13.13469502,"ECCENTRICITY":0.00019202,"INCLINATION":87.903,"RA_OF_ASC_NODE":4.9379,"ARG_OF_PERICENTER":99.6492,"MEAN_ANOMALY":260.4854,"EPHEMERIS_TYPE":0,"CLASSIFICATION_TYPE":"U","NORAD_CAT_ID":48045,"ELEMENT_SET_NO":999,"REV_AT_EPOCH":22397,"BSTAR":4.8313544e-5,"MEAN_MOTION_DOT":3.0e-7,"MEAN_MOTION_DDOT":0},{"OBJECT_NAME":"ONEWEB-0116","OBJECT_ID":"2021-025E","EPOCH":"2025-11-04T04:10:49.073376","MEAN_MOTION":13.13468146,"ECCENTRICITY":0.00018108,"INCLINATION":87.9034,"RA_OF_ASC_NODE":4.9287,"ARG_OF_PERICENTER":103.2275,"MEAN_ANOMALY":256.9056,"EPHEMERIS_TYPE":0,"CLASSIFICATION_TYPE":"U","NORAD_CAT_ID":48046,"ELEMENT_SET_NO":999,"REV_AT_EPOCH":22411,"BSTAR":-0.00012543282,"MEAN_MOTION_DOT":-3.3e-7,"MEAN_MOTION_DDOT":0},{"OBJECT_NAME":"ONEWEB-0150","OBJECT_ID":"2021-025F","EPOCH":"2025-11-04T05:26:22.470144","MEAN_MOTION":13.13471992,"ECCENTRICITY":0.00016879,"INCLINATION":87.9034,"RA_OF_ASC_NODE":4.9133,"ARG_OF_PERICENTER":94.3897,"MEAN_ANOMALY":265.7425,"EPHEMERIS_TYPE":0,"CLASSIFICATION_TYPE":"U","NORAD_CAT_ID":48047,"ELEMENT_SET_NO":999,"REV_AT_EPOCH":22401,"BSTAR":0.00080623968,"MEAN_MOTION_DOT":3.07e-6,"MEAN_MOTION_DDOT":0},{"OBJECT_NAME":"ONEWEB-0107","OBJECT_ID":"2021-025G","EPOCH":"2025-11-04T05:28:50.708352","MEAN_MOTION":13.13470152,"ECCENTRICITY":0.0001956,"INCLINATION":87.9033,"RA_OF_ASC_NODE":4.9101,"ARG_OF_PERICENTER":91.4354,"MEAN_ANOMALY":268.7,"EPHEMERIS_TYPE":0,"CLASSIFICATION_TYPE":"U","NORAD_CAT_ID":48048,"ELEMENT_SET_NO":999,"REV_AT_EPOCH":22399,"BSTAR":0.00085594947,"MEAN_MOTION_DOT":3.25e-6,"MEAN_MOTION_DDOT":0}]
